{
    "links": {
        "self": "http://www.neowsapp.com/rest/v1/neo/3448007?api_key=iIulBulltgU6a56xZRHN4H3l9WmuAYTsLGpBGhQ2"
    },
    "id": "3448007",
    "neo_reference_id": "3448007",
    "name": "(2009 DP4)",
    "designation": "2009 DP4",
    "nasa_jpl_url": "http://ssd.jpl.nasa.gov/sbdb.cgi?sstr=3448007",
    "absolute_magnitude_h": 23.0,
    "estimated_diameter": {
        "kilometers": {
            "estimated_diameter_min": 0.0667659413,
            "estimated_diameter_max": 0.1492931834
        },
        "meters": {
            "estimated_diameter_min": 66.7659413495,
            "estimated_diameter_max": 149.2931834393
        },
        "miles": {
            "estimated_diameter_min": 0.0414864197,
            "estimated_diameter_max": 0.0927664547
        },
        "feet": {
            "estimated_diameter_min": 219.0483710172,
            "estimated_diameter_max": 489.807047955
        }
    },
    "is_potentially_hazardous_asteroid": false,
    "close_approach_data": [
        {
            "close_approach_date": "2008-10-17",
            "close_approach_date_full": "2008-Oct-17 18:58",
            "epoch_date_close_approach": 1224269880000,
            "relative_velocity": {
                "kilometers_per_second": "9.1100041211",
                "kilometers_per_hour": "32796.0148359316",
                "miles_per_hour": "20378.1682184709"
            },
            "miss_distance": {
                "astronomical": "0.3982411433",
                "lunar": "154.9158047437",
                "kilometers": "59576026.784044771",
                "miles": "37018826.4578129998"
            },
            "orbiting_body": "Earth"
        },
        {
            "close_approach_date": "2009-02-17",
            "close_approach_date_full": "2009-Feb-17 04:04",
            "epoch_date_close_approach": 1234843440000,
            "relative_velocity": {
                "kilometers_per_second": "12.4407531235",
                "kilometers_per_hour": "44786.7112447177",
                "miles_per_hour": "27828.7206620303"
            },
            "miss_distance": {
                "astronomical": "0.1051411836",
                "lunar": "40.8999204204",
                "kilometers": "15728897.115838932",
                "miles": "9773483.4653319816"
            },
            "orbiting_body": "Earth"
        }
    ],
    "orbital_data": {
        "orbit_id": "8",
        "orbit_determination_date": "2017-04-06 09:01:17",
        "first_observation_date": "2009-02-20",
        "last_observation_date": "2009-03-04",
        "data_arc_in_days": 12,
        "observations_used": 33,
        "orbit_uncertainty": "8",
        "minimum_orbit_intersection": ".0791218",
        "jupiter_tisserand_invariant": "4.118",
        "epoch_osculation": "2454885.5",
        "eccentricity": ".4355522377414549",
        "semi_major_axis": "1.645323120453525",
        "inclination": "19.27924765372149",
        "ascending_node_longitude": "340.0911081989233",
        "orbital_period": "770.8594977307824",
        "perihelion_distance": ".9286989535322389",
        "perihelion_argument": "119.6699812057082",
        "aphelion_distance": "2.361947287374811",
        "perihelion_time": "2454836.606056176736",
        "mean_anomaly": "22.83401816827891",
        "mean_motion": ".4670111752657261",
        "equinox": "J2000",
        "orbit_class": {
            "orbit_class_type": "APO",
            "orbit_class_description": "Near-Earth asteroid orbits which cross the Earth’s orbit similar to that of 1862 Apollo",
            "orbit_class_range": "a (semi-major axis) > 1.0 AU; q (perihelion) < 1.017 AU"
        }
    },
    "is_sentry_object": false
}